SAOCOM 1A               
1 43641U 18076A   26082.53267431  .00000332  00000+0  48237-4 0  9994
2 43641  97.8896 270.5097 0001423  87.6667 272.4709 14.82153819403412
H-2A R/B                
1 43682U 18084L   26082.55788581  .00018016  00000+0  42149-3 0  9997
2 43682  98.8707 302.9155 0024225 337.3108  22.7062 15.41925111407919
SAOCOM 1B               
1 46265U 20059A   26082.49638434  .00000671  00000+0  90841-4 0  9997
2 46265  97.8897 269.5718 0001516  87.8330 272.3057 14.82151705300792
CSS (TIANHE)            
1 48274U 21035A   26082.53453820  .00022489  00000+0  25938-3 0  9998
2 48274  41.4661 123.8751 0005036   3.1602 356.9268 15.61385941279776
COSMOS 2550             
1 48865U 21056A   26079.66782365 -.00000188  00000+0  12592-6 0  9994
2 48865  67.1449   7.6743 0008199 268.9235  91.0980 15.33831857265142
CZ-2C R/B               
1 52794U 22058K   26082.45928590  .00038082  00000+0  53563-3 0  9999
2 52794  50.1877 247.4039 0041704 259.6309  99.9960 15.55218507212271
CZ-2C R/B               
1 54039U 22132E   26082.46127377  .00045193  00000+0  49127-3 0  9993
2 54039  97.2963  86.2098 0018882  47.2978 312.9867 15.63119366192522
GSLV R/B                
1 54149U 22138AN  26082.49264067  .00004117  00000+0  35466-3 0  9994
2 54149  87.3866 161.7421 0024107 100.8260 259.5687 14.96863723185999
XRISM                   
1 57800U 23137A   26082.50768876  .00005930  00000+0  33442-3 0  9996
2 57800  31.0011 194.2754 0007937 178.6538 181.4123 15.11651747139881
ACS3                    
1 59588U 24077B   26082.53557794  .00017944  00000+0  14208-1 0  9998
2 59588  97.2000  20.5359 0070194  44.2376 316.4371 13.90215342 96129
SZ-21 MODULE            
1 66515U 25246C   26082.18487837  .00043706  00000+0  35991-3 0  9995
2 66515  41.4734 120.2206 0000654 218.7155 141.3640 15.69572241 20198
