[{"OBJECT_NAME":"SAOCOM 1A","OBJECT_ID":"2018-076A","EPOCH":"2026-03-23T12:47:03.060384","MEAN_MOTION":14.82153819,"ECCENTRICITY":0.0001423,"INCLINATION":97.8896,"RA_OF_ASC_NODE":270.5097,"ARG_OF_PERICENTER":87.6667,"MEAN_ANOMALY":272.4709,"EPHEMERIS_TYPE":0,"CLASSIFICATION_TYPE":"U","NORAD_CAT_ID":43641,"ELEMENT_SET_NO":999,"REV_AT_EPOCH":40341,"BSTAR":4.8237e-5,"MEAN_MOTION_DOT":3.32e-6,"MEAN_MOTION_DDOT":0},{"OBJECT_NAME":"H-2A R/B","OBJECT_ID":"2018-084L","EPOCH":"2026-03-23T13:23:21.333984","MEAN_MOTION":15.41925111,"ECCENTRICITY":0.0024225,"INCLINATION":98.8707,"RA_OF_ASC_NODE":302.9155,"ARG_OF_PERICENTER":337.3108,"MEAN_ANOMALY":22.7062,"EPHEMERIS_TYPE":0,"CLASSIFICATION_TYPE":"U","NORAD_CAT_ID":43682,"ELEMENT_SET_NO":999,"REV_AT_EPOCH":40791,"BSTAR":0.00042149,"MEAN_MOTION_DOT":0.00018016,"MEAN_MOTION_DDOT":0},{"OBJECT_NAME":"SAOCOM 1B","OBJECT_ID":"2020-059A","EPOCH":"2026-03-23T11:54:47.606976","MEAN_MOTION":14.82151705,"ECCENTRICITY":0.0001516,"INCLINATION":97.8897,"RA_OF_ASC_NODE":269.5718,"ARG_OF_PERICENTER":87.833,"MEAN_ANOMALY":272.3057,"EPHEMERIS_TYPE":0,"CLASSIFICATION_TYPE":"U","NORAD_CAT_ID":46265,"ELEMENT_SET_NO":999,"REV_AT_EPOCH":30079,"BSTAR":9.0841e-5,"MEAN_MOTION_DOT":6.71e-6,"MEAN_MOTION_DDOT":0},{"OBJECT_NAME":"CSS (TIANHE)","OBJECT_ID":"2021-035A","EPOCH":"2026-03-23T12:49:44.100480","MEAN_MOTION":15.61385941,"ECCENTRICITY":0.0005036,"INCLINATION":41.4661,"RA_OF_ASC_NODE":123.8751,"ARG_OF_PERICENTER":3.1602,"MEAN_ANOMALY":356.9268,"EPHEMERIS_TYPE":0,"CLASSIFICATION_TYPE":"U","NORAD_CAT_ID":48274,"ELEMENT_SET_NO":999,"REV_AT_EPOCH":27977,"BSTAR":0.00025938,"MEAN_MOTION_DOT":0.00022489,"MEAN_MOTION_DDOT":0},{"OBJECT_NAME":"COSMOS 2550","OBJECT_ID":"2021-056A","EPOCH":"2026-03-20T16:01:39.963360","MEAN_MOTION":15.33831857,"ECCENTRICITY":0.00081995,"INCLINATION":67.1449,"RA_OF_ASC_NODE":7.6743,"ARG_OF_PERICENTER":268.9235,"MEAN_ANOMALY":91.098,"EPHEMERIS_TYPE":0,"CLASSIFICATION_TYPE":"U","NORAD_CAT_ID":48865,"ELEMENT_SET_NO":999,"REV_AT_EPOCH":26514,"BSTAR":1.25924e-7,"MEAN_MOTION_DOT":-1.88e-6,"MEAN_MOTION_DDOT":0},{"OBJECT_NAME":"CZ-2C R/B","OBJECT_ID":"2022-058K","EPOCH":"2026-03-23T11:01:22.301760","MEAN_MOTION":15.55218507,"ECCENTRICITY":0.0041704,"INCLINATION":50.1877,"RA_OF_ASC_NODE":247.4039,"ARG_OF_PERICENTER":259.6309,"MEAN_ANOMALY":99.996,"EPHEMERIS_TYPE":0,"CLASSIFICATION_TYPE":"U","NORAD_CAT_ID":52794,"ELEMENT_SET_NO":999,"REV_AT_EPOCH":21227,"BSTAR":0.00053563,"MEAN_MOTION_DOT":0.00038082,"MEAN_MOTION_DDOT":0},{"OBJECT_NAME":"CZ-2C R/B","OBJECT_ID":"2022-132E","EPOCH":"2026-03-23T11:04:14.053728","MEAN_MOTION":15.63119366,"ECCENTRICITY":0.0018882,"INCLINATION":97.2963,"RA_OF_ASC_NODE":86.2098,"ARG_OF_PERICENTER":47.2978,"MEAN_ANOMALY":312.9867,"EPHEMERIS_TYPE":0,"CLASSIFICATION_TYPE":"U","NORAD_CAT_ID":54039,"ELEMENT_SET_NO":999,"REV_AT_EPOCH":19252,"BSTAR":0.00049127,"MEAN_MOTION_DOT":0.00045193,"MEAN_MOTION_DDOT":0},{"OBJECT_NAME":"GSLV R/B","OBJECT_ID":"2022-138AN","EPOCH":"2026-03-23T11:49:24.153888","MEAN_MOTION":14.96863723,"ECCENTRICITY":0.0024107,"INCLINATION":87.3866,"RA_OF_ASC_NODE":161.7421,"ARG_OF_PERICENTER":100.826,"MEAN_ANOMALY":259.5687,"EPHEMERIS_TYPE":0,"CLASSIFICATION_TYPE":"U","NORAD_CAT_ID":54149,"ELEMENT_SET_NO":999,"REV_AT_EPOCH":18599,"BSTAR":0.00035466,"MEAN_MOTION_DOT":4.117e-5,"MEAN_MOTION_DDOT":0},{"OBJECT_NAME":"XRISM","OBJECT_ID":"2023-137A","EPOCH":"2026-03-23T12:11:04.308864","MEAN_MOTION":15.11651747,"ECCENTRICITY":0.0007937,"INCLINATION":31.0011,"RA_OF_ASC_NODE":194.2754,"ARG_OF_PERICENTER":178.6538,"MEAN_ANOMALY":181.4123,"EPHEMERIS_TYPE":0,"CLASSIFICATION_TYPE":"U","NORAD_CAT_ID":57800,"ELEMENT_SET_NO":999,"REV_AT_EPOCH":13988,"BSTAR":0.00033442,"MEAN_MOTION_DOT":5.93e-5,"MEAN_MOTION_DDOT":0},{"OBJECT_NAME":"ACS3","OBJECT_ID":"2024-077B","EPOCH":"2026-03-23T12:51:13.934016","MEAN_MOTION":13.90215342,"ECCENTRICITY":0.0070194,"INCLINATION":97.2,"RA_OF_ASC_NODE":20.5359,"ARG_OF_PERICENTER":44.2376,"MEAN_ANOMALY":316.4371,"EPHEMERIS_TYPE":0,"CLASSIFICATION_TYPE":"U","NORAD_CAT_ID":59588,"ELEMENT_SET_NO":999,"REV_AT_EPOCH":9612,"BSTAR":0.014208,"MEAN_MOTION_DOT":0.00017944,"MEAN_MOTION_DDOT":0},{"OBJECT_NAME":"SZ-21 MODULE","OBJECT_ID":"2025-246C","EPOCH":"2026-03-23T04:26:13.491168","MEAN_MOTION":15.69572241,"ECCENTRICITY":6.541e-5,"INCLINATION":41.4734,"RA_OF_ASC_NODE":120.2206,"ARG_OF_PERICENTER":218.7155,"MEAN_ANOMALY":141.364,"EPHEMERIS_TYPE":0,"CLASSIFICATION_TYPE":"U","NORAD_CAT_ID":66515,"ELEMENT_SET_NO":999,"REV_AT_EPOCH":2019,"BSTAR":0.00035990835,"MEAN_MOTION_DOT":0.00043706,"MEAN_MOTION_DDOT":0}]
